[{"OBJECT_NAME":"SL-8 R/B","OBJECT_ID":"1979-089B","EPOCH":"2026-03-10T05:32:40.343136","MEAN_MOTION":14.42351253,"ECCENTRICITY":0.00171582,"INCLINATION":74.0667,"RA_OF_ASC_NODE":90.0415,"ARG_OF_PERICENTER":262.6507,"MEAN_ANOMALY":97.2699,"EPHEMERIS_TYPE":0,"CLASSIFICATION_TYPE":"U","NORAD_CAT_ID":11574,"ELEMENT_SET_NO":999,"REV_AT_EPOCH":43618,"BSTAR":0.00011220241,"MEAN_MOTION_DOT":3.45e-6,"MEAN_MOTION_DDOT":0},{"OBJECT_NAME":"SL-14 R/B","OBJECT_ID":"1980-005B","EPOCH":"2026-03-10T03:07:42.222720","MEAN_MOTION":14.90930937,"ECCENTRICITY":0.00162188,"INCLINATION":82.5144,"RA_OF_ASC_NODE":306.8184,"ARG_OF_PERICENTER":156.8608,"MEAN_ANOMALY":203.3345,"EPHEMERIS_TYPE":0,"CLASSIFICATION_TYPE":"U","NORAD_CAT_ID":11672,"ELEMENT_SET_NO":999,"REV_AT_EPOCH":47655,"BSTAR":6.4126665e-5,"MEAN_MOTION_DOT":6.59e-6,"MEAN_MOTION_DDOT":0},{"OBJECT_NAME":"SL-8 R/B","OBJECT_ID":"1981-003B","EPOCH":"2026-03-10T01:36:27.345888","MEAN_MOTION":15.10990524,"ECCENTRICITY":0.0262078,"INCLINATION":82.9385,"RA_OF_ASC_NODE":289.6746,"ARG_OF_PERICENTER":177.3345,"MEAN_ANOMALY":182.9362,"EPHEMERIS_TYPE":0,"CLASSIFICATION_TYPE":"U","NORAD_CAT_ID":12139,"ELEMENT_SET_NO":999,"REV_AT_EPOCH":31473,"BSTAR":0.00055973642,"MEAN_MOTION_DOT":0.00021828,"MEAN_MOTION_DDOT":0},{"OBJECT_NAME":"SL-3 R/B","OBJECT_ID":"1981-046B","EPOCH":"2026-03-10T07:17:10.444704","MEAN_MOTION":15.42014699,"ECCENTRICITY":0.00195019,"INCLINATION":81.2299,"RA_OF_ASC_NODE":289.0069,"ARG_OF_PERICENTER":20.215,"MEAN_ANOMALY":339.9861,"EPHEMERIS_TYPE":0,"CLASSIFICATION_TYPE":"U","NORAD_CAT_ID":12465,"ELEMENT_SET_NO":999,"REV_AT_EPOCH":43852,"BSTAR":0.00033728737,"MEAN_MOTION_DOT":0.00014518,"MEAN_MOTION_DDOT":0},{"OBJECT_NAME":"SL-3 R/B","OBJECT_ID":"1981-103B","EPOCH":"2026-03-10T05:35:04.019424","MEAN_MOTION":15.21385055,"ECCENTRICITY":0.00124166,"INCLINATION":81.1586,"RA_OF_ASC_NODE":212.7948,"ARG_OF_PERICENTER":285.084,"MEAN_ANOMALY":74.9017,"EPHEMERIS_TYPE":0,"CLASSIFICATION_TYPE":"U","NORAD_CAT_ID":12904,"ELEMENT_SET_NO":999,"REV_AT_EPOCH":97331,"BSTAR":0.00031214713,"MEAN_MOTION_DOT":7.038e-5,"MEAN_MOTION_DDOT":0},{"OBJECT_NAME":"SL-3 R/B","OBJECT_ID":"1982-013B","EPOCH":"2026-03-10T05:46:21.655488","MEAN_MOTION":15.22026031,"ECCENTRICITY":0.00226571,"INCLINATION":81.1762,"RA_OF_ASC_NODE":160.1251,"ARG_OF_PERICENTER":175.699,"MEAN_ANOMALY":184.4442,"EPHEMERIS_TYPE":0,"CLASSIFICATION_TYPE":"U","NORAD_CAT_ID":13068,"ELEMENT_SET_NO":999,"REV_AT_EPOCH":40443,"BSTAR":0.00024895259,"MEAN_MOTION_DOT":5.753e-5,"MEAN_MOTION_DDOT":0},{"OBJECT_NAME":"SL-3 R/B","OBJECT_ID":"1982-039B","EPOCH":"2026-03-10T06:04:33.786912","MEAN_MOTION":15.10086203,"ECCENTRICITY":0.00297221,"INCLINATION":81.1582,"RA_OF_ASC_NODE":215.312,"ARG_OF_PERICENTER":322.663,"MEAN_ANOMALY":37.2529,"EPHEMERIS_TYPE":0,"CLASSIFICATION_TYPE":"U","NORAD_CAT_ID":13154,"ELEMENT_SET_NO":999,"REV_AT_EPOCH":38172,"BSTAR":0.00021716651,"MEAN_MOTION_DOT":3.595e-5,"MEAN_MOTION_DDOT":0},{"OBJECT_NAME":"SL-3 R/B","OBJECT_ID":"1982-079B","EPOCH":"2026-03-10T07:45:16.904448","MEAN_MOTION":15.24813483,"ECCENTRICITY":0.00250482,"INCLINATION":81.148,"RA_OF_ASC_NODE":192.3291,"ARG_OF_PERICENTER":162.7452,"MEAN_ANOMALY":197.4639,"EPHEMERIS_TYPE":0,"CLASSIFICATION_TYPE":"U","NORAD_CAT_ID":13403,"ELEMENT_SET_NO":999,"REV_AT_EPOCH":37779,"BSTAR":0.00033950447,"MEAN_MOTION_DOT":8.526e-5,"MEAN_MOTION_DDOT":0},{"OBJECT_NAME":"SL-14 R/B","OBJECT_ID":"1982-092B","EPOCH":"2026-03-10T05:57:56.788416","MEAN_MOTION":14.86666977,"ECCENTRICITY":0.00189797,"INCLINATION":82.5694,"RA_OF_ASC_NODE":140.8769,"ARG_OF_PERICENTER":301.5616,"MEAN_ANOMALY":115.7311,"EPHEMERIS_TYPE":0,"CLASSIFICATION_TYPE":"U","NORAD_CAT_ID":13553,"ELEMENT_SET_NO":999,"REV_AT_EPOCH":32901,"BSTAR":5.9104077e-5,"MEAN_MOTION_DOT":5.51e-6,"MEAN_MOTION_DDOT":0},{"OBJECT_NAME":"SL-3 R/B","OBJECT_ID":"1983-010B","EPOCH":"2026-03-10T06:41:15.204480","MEAN_MOTION":15.46382912,"ECCENTRICITY":0.00179336,"INCLINATION":81.1059,"RA_OF_ASC_NODE":1.5253,"ARG_OF_PERICENTER":49.1445,"MEAN_ANOMALY":311.135,"EPHEMERIS_TYPE":0,"CLASSIFICATION_TYPE":"U","NORAD_CAT_ID":13819,"ELEMENT_SET_NO":999,"REV_AT_EPOCH":35803,"BSTAR":0.00042916275,"MEAN_MOTION_DOT":0.00021396,"MEAN_MOTION_DDOT":0},{"OBJECT_NAME":"SL-3 R/B","OBJECT_ID":"1983-075B","EPOCH":"2026-03-10T04:58:43.831200","MEAN_MOTION":15.38433317,"ECCENTRICITY":0.00201659,"INCLINATION":97.6146,"RA_OF_ASC_NODE":73.8042,"ARG_OF_PERICENTER":223.9266,"MEAN_ANOMALY":136.0376,"EPHEMERIS_TYPE":0,"CLASSIFICATION_TYPE":"U","NORAD_CAT_ID":14208,"ELEMENT_SET_NO":999,"REV_AT_EPOCH":33023,"BSTAR":0.0003656315,"MEAN_MOTION_DOT":0.00013876,"MEAN_MOTION_DDOT":0},{"OBJECT_NAME":"COSMOS 1536","OBJECT_ID":"1984-013A","EPOCH":"2026-03-10T02:44:02.429664","MEAN_MOTION":15.23830686,"ECCENTRICITY":0.00124589,"INCLINATION":82.5429,"RA_OF_ASC_NODE":107.4289,"ARG_OF_PERICENTER":281.6067,"MEAN_ANOMALY":78.3771,"EPHEMERIS_TYPE":0,"CLASSIFICATION_TYPE":"U","NORAD_CAT_ID":14699,"ELEMENT_SET_NO":999,"REV_AT_EPOCH":27268,"BSTAR":0.0002979967,"MEAN_MOTION_DOT":7.227e-5,"MEAN_MOTION_DDOT":0},{"OBJECT_NAME":"SL-14 R/B","OBJECT_ID":"1984-027B","EPOCH":"2026-03-09T23:05:59.586144","MEAN_MOTION":14.85976757,"ECCENTRICITY":0.0017328,"INCLINATION":82.5387,"RA_OF_ASC_NODE":244.7567,"ARG_OF_PERICENTER":336.9053,"MEAN_ANOMALY":23.1383,"EPHEMERIS_TYPE":0,"CLASSIFICATION_TYPE":"U","NORAD_CAT_ID":14820,"ELEMENT_SET_NO":999,"REV_AT_EPOCH":24767,"BSTAR":7.0784e-5,"MEAN_MOTION_DOT":6.44e-6,"MEAN_MOTION_DDOT":0},{"OBJECT_NAME":"SL-8 R/B","OBJECT_ID":"1985-006B","EPOCH":"2026-03-10T00:23:42.835200","MEAN_MOTION":14.3778312,"ECCENTRICITY":0.00184318,"INCLINATION":74.0432,"RA_OF_ASC_NODE":260.5471,"ARG_OF_PERICENTER":178.3119,"MEAN_ANOMALY":297.6652,"EPHEMERIS_TYPE":0,"CLASSIFICATION_TYPE":"U","NORAD_CAT_ID":15483,"ELEMENT_SET_NO":999,"REV_AT_EPOCH":15407,"BSTAR":0.00012918302,"MEAN_MOTION_DOT":3.64e-6,"MEAN_MOTION_DDOT":0},{"OBJECT_NAME":"SL-12 R/B(2)","OBJECT_ID":"1985-042D","EPOCH":"2026-03-10T08:00:16.873632","MEAN_MOTION":14.21982513,"ECCENTRICITY":0.00331994,"INCLINATION":71.1062,"RA_OF_ASC_NODE":86.3682,"ARG_OF_PERICENTER":127.0798,"MEAN_ANOMALY":325.9788,"EPHEMERIS_TYPE":0,"CLASSIFICATION_TYPE":"U","NORAD_CAT_ID":15772,"ELEMENT_SET_NO":999,"REV_AT_EPOCH":11448,"BSTAR":4.8290688e-5,"MEAN_MOTION_DOT":6.0e-7,"MEAN_MOTION_DDOT":0},{"OBJECT_NAME":"SL-14 R/B","OBJECT_ID":"1985-069B","EPOCH":"2026-03-10T06:48:38.684448","MEAN_MOTION":14.86434114,"ECCENTRICITY":0.00185279,"INCLINATION":82.5287,"RA_OF_ASC_NODE":24.3742,"ARG_OF_PERICENTER":185.7129,"MEAN_ANOMALY":174.3879,"EPHEMERIS_TYPE":0,"CLASSIFICATION_TYPE":"U","NORAD_CAT_ID":15945,"ELEMENT_SET_NO":999,"REV_AT_EPOCH":17292,"BSTAR":7.9292838e-5,"MEAN_MOTION_DOT":7.26e-6,"MEAN_MOTION_DDOT":0},{"OBJECT_NAME":"SL-16 R/B","OBJECT_ID":"1985-097B","EPOCH":"2026-03-10T06:26:27.815136","MEAN_MOTION":14.16598679,"ECCENTRICITY":0.00099073,"INCLINATION":71.0027,"RA_OF_ASC_NODE":139.3363,"ARG_OF_PERICENTER":259.0861,"MEAN_ANOMALY":158.563,"EPHEMERIS_TYPE":0,"CLASSIFICATION_TYPE":"U","NORAD_CAT_ID":16182,"ELEMENT_SET_NO":999,"REV_AT_EPOCH":8731,"BSTAR":-7.5933831e-5,"MEAN_MOTION_DOT":-1.99e-6,"MEAN_MOTION_DDOT":0}]
